{"type":"FeatureCollection","features":[{"type":"Feature","properties":{},"geometry":{"coordinates":[[[-156.90916467982026,20.83462549145068],[-156.9096428447849,20.83327066198742],[-156.91002433882412,20.83122553233511],[-156.91027155,20.82908829],[-156.91037144034325,20.82800858],[-156.91037647015568,20.826928853661073],[-156.9101386,20.825740308473517],[-156.90990073,20.82464042],[-156.90928270528184,20.822329787553358],[-156.90755222694716,20.819556980309486],[-156.9034013230737,20.81490050490646],[-156.89301845348206,20.807736962521744],[-156.886096540421,20.803461783111445],[-156.88090510562523,20.800457530475583],[-156.87435400933524,20.796413249739388],[-156.8697806024913,20.793986629253894],[-156.86557801241847,20.79283108197204],[-156.86137542234573,20.792599971453868],[-156.85840888817665,20.793062192136247],[-156.85593677636913,20.793986629253894],[-156.85395908692306,20.795604380580926],[-156.85284663660968,20.797915423813322],[-156.8527230310193,20.800457530475583],[-156.85309384779052,20.802884046867447],[-156.8542062981039,20.806350431128962],[-156.85630759314023,20.80958565121024],[-156.85877970494784,20.812127561141295],[-156.86298229502057,20.81570927056154],[-156.8661960403704,20.81859768389907],[-156.8710166592827,20.821948173665632],[-156.87670251644002,20.825067528512008],[-156.8825119791877,20.827724705765064],[-156.88597293571826,20.829573149249413],[-156.89264763759851,20.83223024701033],[-156.896726622081,20.833847587909375],[-156.9031541127806,20.835233866281285],[-156.90586240608215,20.835834356793796],[-156.90710968325922,20.83574798385581],[-156.90832078,20.83542124],[-156.90872168694426,20.83519432639856],[-156.90916467982026,20.83462549145068]]],"type":"Polygon"}}]}