{"type":"FeatureCollection","features":[{"type":"Feature","properties":{},"geometry":{"coordinates":[[[-157.97575871078215,21.6188372424444],[-157.97902962524017,21.617685873960504],[-157.98262847397498,21.615467465607196],[-157.98455305524004,21.61292196000528],[-157.98680556985974,21.609156883717418],[-157.98816702,21.605802804433946],[-157.9895284798738,21.601533951853227],[-157.99000524951967,21.5948357],[-157.9894162547878,21.589737982026662],[-157.9873277068454,21.577599845602222],[-157.98367274794612,21.56254714402229],[-157.9784513780901,21.54943545305437],[-157.96644222742117,21.525637135655757],[-157.95547735072347,21.50232071724821],[-157.9398132411552,21.473655831255897],[-157.9220605836447,21.444985302719132],[-157.9053522001053,21.424572339228007],[-157.88081176178187,21.39686446695221],[-157.8656697891993,21.380334463452485],[-157.8385186659478,21.3521319132728],[-157.81188967968183,21.32830139071686],[-157.78734924135838,21.31176365120561],[-157.77649585810573,21.306509582712994],[-157.76631418702564,21.303007623284287],[-157.75393247427962,21.302535353521748],[-157.7434897345675,21.30495345236838],[-157.7340912688266,21.306870873759635],[-157.73023479572703,21.308955998588218],[-157.7279904324376,21.31204234432147],[-157.7273706604847,21.31676723],[-157.72782562499935,21.321491958898093],[-157.73119666286348,21.324660614459994],[-157.73537376249598,21.326577777858972],[-157.74218439,21.327800823023715],[-157.74818896743793,21.329274140899145],[-157.7628468837884,21.33593679747689],[-157.77589269273454,21.34410068844153],[-157.79935839202733,21.35991246951555],[-157.8197217344659,21.379848258606074],[-157.83538584403416,21.39832290698601],[-157.8473949947031,21.421655968548023],[-157.85574918647274,21.443041333983828],[-157.86880261111293,21.471226344190995],[-157.876634665897,21.49114694162877],[-157.891254501494,21.52272278792627],[-157.90378578914851,21.544093313256738],[-157.9147506658462,21.564975104852124],[-157.9288483644575,21.58828145937072],[-157.9345918712992,21.600856063016295],[-157.93947018762012,21.608400606481155],[-157.94451247402577,21.614496624778354],[-157.9506443957205,21.618279686865506],[-157.95743217661206,21.62038593160021],[-157.96712832951965,21.62044995228622],[-157.97119757286015,21.619872244862744],[-157.97575871078215,21.6188372424444]]],"type":"Polygon"}},{"type":"Feature","properties":{},"geometry":{"coordinates":[[[-158.2077638931248,21.550183671312922],[-158.20914214281987,21.54775242973397],[-158.2100277811345,21.544993861528365],[-158.2105909928199,21.542049832549655],[-158.21080233668465,21.539236651880486],[-158.2105538085768,21.532871847486707],[-158.2097580627134,21.526608571906337],[-158.2086889696686,21.522424975799712],[-158.20714738,21.51835116],[-158.2057751,21.51434682],[-158.2041350658785,21.51003099626459],[-158.2006273513192,21.503958721628244],[-158.19618250108766,21.497948472477063],[-158.19188489697876,21.493084048112898],[-158.18678403534676,21.488717746418857],[-158.1835259843404,21.486885577023443],[-158.18053568290767,21.485551686235492],[-158.1770728934894,21.48403274928926],[-158.17320847372102,21.482887512490592],[-158.16119932305207,21.480944049290386],[-158.15075658333996,21.47851468380894],[-158.1452212711697,21.476767951755996],[-158.13979170664226,21.474627614735084],[-158.12517187104524,21.46636724850576],[-158.12013734444454,21.462202050124535],[-158.1166682707622,21.457551089100207],[-158.11390880722217,21.450955813883827],[-158.1124166291829,21.44394393629706],[-158.11107417243392,21.428460742861418],[-158.11107417243392,21.411448212565347],[-158.11231478195364,21.397729795407116],[-158.1113999714371,21.39087888097424],[-158.10958921183638,21.385165290565254],[-158.10668402251494,21.382203426024294],[-158.10263853030503,21.38015163945873],[-158.09785784928144,21.37978797899013],[-158.0930771638455,21.38056199856159],[-158.0896018185629,21.38358616342641],[-158.08653373411047,21.387141161686614],[-158.0843804485629,21.392656301372377],[-158.08287877521127,21.39832290698601],[-158.0787016793264,21.4177673837128],[-158.0771352683696,21.43720927235175],[-158.0754091179238,21.446882087240724],[-158.07452458344153,21.456162620124715],[-158.0751987118857,21.465250356158332],[-158.0771352683696,21.474141723805985],[-158.08073956603812,21.481872245724414],[-158.08392304918243,21.48823190251116],[-158.08789361905716,21.497712786673063],[-158.09196938811445,21.505724869910566],[-158.10167570669304,21.51835115671841],[-158.10715815,21.52417997],[-158.11423440622661,21.530464735962198],[-158.12779203011445,21.538443512258965],[-158.14553521348392,21.545550279978727],[-158.16224359702332,21.550406730068346],[-158.1761155073449,21.553044894939035],[-158.18209345,21.554023429220695],[-158.18784560523991,21.55465196890856],[-158.19364688102647,21.554408217977418],[-158.19908884581525,21.55383028034223],[-158.20132797656396,21.553316764803313],[-158.20349674,21.552541428767224],[-158.20591180938385,21.551526186427544],[-158.2077638931248,21.550183671312922]]],"type":"Polygon"}}]}