{"type":"FeatureCollection","features":[{"type":"Feature","properties":{},"geometry":{"coordinates":[[[-156.82791729877175,21.155078594448014],[-156.82357279,21.15638944],[-156.8186763133519,21.157581479710927],[-156.81207262521707,21.158415265831636],[-156.8044058476906,21.15889192703318],[-156.79852798492027,21.158653596624276],[-156.78958341113935,21.158176934655344],[-156.78063883735842,21.157223606113106],[-156.77660690580302,21.15665530396514],[-156.7724609413301,21.155555266392568],[-156.76939423,21.15361010346072],[-156.7663275193089,21.151026820961903],[-156.76392058664393,21.14825879249071],[-156.76223857129474,21.14506812915897],[-156.76172745279302,21.140301003137182],[-156.7612163359219,21.135772090534516],[-156.76198301367447,21.1298127852331],[-156.76292949569222,21.126944851006947],[-156.76428304693246,21.12433001278268],[-156.76663510569225,21.12193137347803],[-156.7693942319501,21.12003900598424],[-156.77552765397127,21.11646307215827],[-156.77999994,21.11419827],[-156.78424450387558,21.11177410316769],[-156.78638892,21.10990697],[-156.7883056165155,21.107880479326496],[-156.7914411476248,21.104386855174056],[-156.79392792,21.10275453],[-156.79648351254372,21.10144320898783],[-156.81053927134235,21.091667561082104],[-156.822294996883,21.084752689943727],[-156.82817285985053,21.080222082742395],[-156.8368618743806,21.076645189959223],[-156.84836204067037,21.073306679047732],[-156.85429836965838,21.072528591146842],[-156.85750912585402,21.072721619682365],[-156.86033867029107,21.073593736867778],[-156.86237017102482,21.074866824510924],[-156.8639511549742,21.076883652155715],[-156.86599563,21.07998363],[-156.86723491,21.081611476278],[-156.8684741846685,21.082865444982517],[-156.87042650820305,21.083516402486623],[-156.87251239,21.08391811],[-156.87485120525508,21.0843354],[-156.87698467676927,21.08475269003665],[-156.88005139,21.08499114],[-156.88166174644138,21.085254061190867],[-156.88311809922143,21.08522958794765],[-156.88522646,21.084729271086843],[-156.88733483,21.08403734],[-156.89155155450052,21.082845082661436],[-156.89870721352528,21.07950671098594],[-156.91040145211738,21.076712719296992],[-156.91685192,21.07640673],[-156.92338437115666,21.076827466242975],[-156.93075508,21.07814796],[-156.93826925,21.07988917],[-156.95329760123738,21.08337152884215],[-156.96530888602888,21.08885581436799],[-156.9780868485731,21.09839322004109],[-156.98958701486288,21.10936047933707],[-157.0000649441491,21.120565320308785],[-157.00900951793,21.12962393467339],[-157.0189763287144,21.14178067880455],[-157.0225541582268,21.152506389491805],[-157.0222986,21.15774979],[-157.0217746777288,21.162836585629478],[-157.02110585574857,21.16496623739509],[-157.02023576107354,21.16690815874624],[-157.01903623524953,21.1687204866186],[-157.0177696097647,21.17028254386166],[-157.01601025099808,21.171197061128826],[-157.01398253671098,21.17204902],[-157.01135107825493,21.17305512840462],[-157.0084824266552,21.173618872457368],[-157.00210143,21.17354887],[-156.99891093,21.17351387],[-156.99731568,21.173476732443753],[-156.99572043688406,21.17328248616431],[-156.99416388869142,21.17289291456307],[-156.99227039,21.172385521291712],[-156.98882033711018,21.171095780964237],[-156.97936464482754,21.166329492918706],[-156.97016451179576,21.16060974461149],[-156.96275329352014,21.15560478352586],[-156.95895062563073,21.153961638146928],[-156.95654615763516,21.152761060655553],[-156.95445130444062,21.151993612698348],[-156.95244369254505,21.15150976952937],[-156.94997164454946,21.151098108872233],[-156.94665306071445,21.150599653246715],[-156.94026407944241,21.15036130948988],[-156.9279972353999,21.15012296534951],[-156.9198193393717,21.149884620825517],[-156.90550802132222,21.148931238893894],[-156.88864111076393,21.149169584952162],[-156.875352029718,21.149169584952162],[-156.86052959316675,21.149407930626836],[-156.85005166388055,21.15036130948988],[-156.83574034583103,21.152744729796183],[-156.82791729877175,21.155078594448014]]],"type":"Polygon"}}]}